SWARM B                 
1 39451U 13067A   26194.58111463  .00002039  00000+0  71793-4 0  9994
2 39451  87.7458 334.2982 0002391  83.2208 276.9313 15.28710795687278
SWARM A                 
1 39452U 13067B   26194.60498875  .00006686  00000+0  11271-3 0  9999
2 39452  87.3299  46.4189 0003315  94.0602 266.1038 15.51438772710342
SWARM C                 
1 39453U 13067C   26194.60489476  .00006700  00000+0  11295-3 0  9990
2 39453  87.3299  44.9997 0003298  94.1732 265.9906 15.51438105710305
BRITE-CA1 (TORONTO)     
1 40020U 14033L   26194.60386542  .00000524  00000+0  86343-4 0  9991
2 40020  97.9769 323.0497 0078321 191.3587 168.5856 14.72720611646105
OCO 2                   
1 40059U 14035A   26194.59307394  .00000165  00000+0  46534-4 0  9990
2 40059  98.2020 135.4850 0001444  80.9910 279.1451 14.57131469639892
BRITE-PL2 (HEWELIUSZ)   
1 40119U 14049B   26194.54944771  .00000685  00000+0  68555-4 0  9997
2 40119  97.9119 306.7568 0014495  27.6491 332.5497 14.94684657645383
MMS 1                   
1 40482U 15011A   26194.66668981 -.00001456  00000+0  00000+0 0  9993
2 40482  72.5139 348.4333 8304937 168.0208 119.5528  0.28348581  1353
MMS 2                   
1 40483U 15011B   26194.66668981 -.00001456  00000+0  00000+0 0  9994
2 40483  72.5180 348.4323 8307751 168.0236 119.5404  0.28348537  1351
MMS 3                   
1 40484U 15011C   26194.66668981 -.00001455  00000+0  00000+0 0  9994
2 40484  72.5176 348.4442 8306117 168.0313 119.5145  0.28348543  1326
MMS 4                   
1 40485U 15011D   26194.66668981 -.00001456  00000+0  00000+0 0  9996
2 40485  72.5133 348.4276 8306066 168.0412 119.5091  0.28348559  1381
ASTROSAT                
1 40930U 15052A   26192.78050286  .00001187  00000+0  62854-4 0  9990
2 40930   5.9982 338.3312 0007756  22.2669 337.7795 14.82549129583480
DAMPE                   
1 41173U 15078A   26194.57648281  .00000972  00000+0  35168-4 0  9994
2 41173  97.4561 200.1741 0011773 351.4866   8.6173 15.30851887588582
PISAT                   
1 41784U 16059B   26194.50436385  .00000475  00000+0  88466-4 0  9992
2 41784  97.8190 193.8276 0030381 119.9868 240.4360 14.69027907523603
HXMT (HUIYAN)           
1 42758U 17034A   26194.64144536  .00002393  00000+0  12342-3 0  9997
2 42758  43.0153  35.7141 0032459 311.2272  48.5781 15.18680409501681
FLYING LAPTOP           
1 42831U 17042G   26194.58046403  .00002183  00000+0  17346-3 0  9991
2 42831  97.4792 349.1191 0019767  37.7066 322.5540 15.01306679490412
ZHANGHENG 1-01 (CSES-1) 
1 43194U 18015C   26194.58766390  .00003883  00000+0  17995-3 0  9997
2 43194  97.6883   0.7748 0016252 170.4056 189.7493 15.20595138468658
SALSAT                  
1 46495U 20068K   26194.50246524  .00004373  00000+0  15263-3 0  9990
2 46495  97.8854 199.1769 0008994 199.0888 161.0016 15.30157505319387
IXPE                    
1 49954U 21121A   26194.66668981  .00006904  00000+0  35266-3 0  9993
2 49954   0.2299 116.9399 0006700 119.0974 213.6482 15.10481132  5183
