OBJECT_NAME,OBJECT_ID,EPOCH,MEAN_MOTION,ECCENTRICITY,INCLINATION,RA_OF_ASC_NODE,ARG_OF_PERICENTER,MEAN_ANOMALY,EPHEMERIS_TYPE,CLASSIFICATION_TYPE,NORAD_CAT_ID,ELEMENT_SET_NO,REV_AT_EPOCH,BSTAR,MEAN_MOTION_DOT,MEAN_MOTION_DDOT
SWARM B,2013-067A,2026-07-13T13:56:48.304032,15.28710795,.00023915,87.7458,334.2982,83.2208,276.9313,0,U,39451,999,68727,.71793496E-4,.2039E-4,0
SWARM A,2013-067B,2026-07-13T14:31:11.028000,15.51438772,.00033155,87.3299,46.4189,94.0602,266.1038,0,U,39452,999,71034,.11271456E-3,.6686E-4,0
SWARM C,2013-067C,2026-07-13T14:31:02.907264,15.51438105,.00032981,87.3299,44.9997,94.1732,265.9906,0,U,39453,999,71030,.11295278E-3,.67E-4,0
BRITE-CA1 (TORONTO),2014-033L,2026-07-13T14:29:33.972288,14.72720611,.00783216,97.9769,323.0497,191.3587,168.5856,0,U,40020,999,64610,.86342804E-4,.524E-5,0
OCO 2,2014-035A,2026-07-13T14:14:01.588416,14.57131469,.00014443,98.2020,135.4850,80.9910,279.1451,0,U,40059,999,63989,.46534141E-4,.165E-5,0
BRITE-PL2 (HEWELIUSZ),2014-049B,2026-07-13T13:11:12.282144,14.94684657,.00144951,97.9119,306.7568,27.6491,332.5497,0,U,40119,999,64538,.68555297E-4,.685E-5,0
MMS 1,2015-011A,2026-07-13T16:00:01.999584,0.28348581,.83049372,72.5139,348.4333,168.0208,119.5528,0,U,40482,999,135,0,-.1456E-4,0
MMS 2,2015-011B,2026-07-13T16:00:01.999584,0.28348537,.83077519,72.5180,348.4323,168.0236,119.5404,0,U,40483,999,135,0,-.1456E-4,0
MMS 3,2015-011C,2026-07-13T16:00:01.999584,0.28348543,.83061174,72.5176,348.4442,168.0313,119.5145,0,U,40484,999,132,0,-.1455E-4,0
MMS 4,2015-011D,2026-07-13T16:00:01.999584,0.28348559,.83060668,72.5133,348.4276,168.0412,119.5091,0,U,40485,999,138,0,-.1456E-4,0
ASTROSAT,2015-052A,2026-07-11T18:43:55.447104,14.82549129,.00077569,5.9982,338.3312,22.2669,337.7795,0,U,40930,999,58348,.62854136E-4,.1187E-4,0
DAMPE,2015-078A,2026-07-13T13:50:08.114784,15.30851887,.00117736,97.4561,200.1741,351.4866,8.6173,0,U,41173,999,58858,.35168193E-4,.972E-5,0
PISAT,2016-059B,2026-07-13T12:06:17.036640,14.69027907,.00303814,97.8190,193.8276,119.9868,240.4360,0,U,41784,999,52360,.88465925E-4,.475E-5,0
HXMT (HUIYAN),2017-034A,2026-07-13T15:23:40.879104,15.18680409,.00324594,43.0153,35.7141,311.2272,48.5781,0,U,42758,999,50168,.12342211E-3,.2393E-4,0
FLYING LAPTOP,2017-042G,2026-07-13T13:55:52.092192,15.01306679,.00197671,97.4792,349.1191,37.7066,322.5540,0,U,42831,999,49041,.17346388E-3,.2183E-4,0
ZHANGHENG 1-01 (CSES-1),2018-015C,2026-07-13T14:06:14.160960,15.20595138,.00162523,97.6883,0.7748,170.4056,189.7493,0,U,43194,999,46865,.17994965E-3,.3883E-4,0
SALSAT,2020-068K,2026-07-13T12:03:32.996736,15.30157505,.00089942,97.8854,199.1769,199.0888,161.0016,0,U,46495,999,31938,.15262836E-3,.4373E-4,0
IXPE,2021-121A,2026-07-13T16:00:01.999584,15.10481132,.00067,0.2299,116.9399,119.0974,213.6482,0,U,49954,999,518,.35265913E-3,.6904E-4,0
